STARLINK-37589          
1 69839U 26154W   26197.83335647 -.00049822  00000+0 -25004-3 0  9997
2 69839  53.1584 284.5667 0001286  97.1132 318.5260 15.80897313  2902
STARLINK-37487          
1 69840U 26154X   26197.83335647 -.01546327  00000+0 -60008-2 0  9994
2 69840  53.1569 284.1516 0000689  66.3656 188.6906 15.89007887  2902
STARLINK-37433          
1 69841U 26154Y   26197.83335647 -.02226105  00000+0 -89329-2 0  9992
2 69841  53.1570 284.1355 0001133  68.9686 193.7819 15.88968215  3037
STARLINK-37588          
1 69842U 26154Z   26197.83335647 -.00632217  00000+0 -23219-2 0  9992
2 69842  53.1567 284.1261 0000707  57.7353 209.4914 15.88990753  2934
STARLINK-37579          
1 69843U 26154AA  26197.83335647 -.01671295  00000+0 -67149-2 0  9993
2 69843  53.1567 284.1097 0000744  60.6552 214.2462 15.88542370  2937
STARLINK-37584          
1 69844U 26154AB  26197.83335647 -.00828928  00000+0 -32425-2 0  9999
2 69844  53.1570 284.0986 0000672  67.3640 212.8166 15.88182724  2938
STARLINK-37606          
1 69845U 26154AC  26197.83335647 -.01824657  00000+0 -75115-2 0  9999
2 69845  53.1566 284.0858 0000766  68.0091 218.2336 15.88343213  2935
STARLINK-37603          
1 69846U 26154AD  26197.83335647 -.01863085  00000+0 -78170-2 0  9992
2 69846  53.1567 284.0712 0000792  67.2556 225.8206 15.88040053  2938
STARLINK-37595          
1 69847U 26154AE  26197.83335647 -.01876238  00000+0 -79249-2 0  9995
2 69847  53.1565 284.0600 0000722  59.6715 238.5947 15.87934146  2935
QIANFAN-219             
1 69848U 26155A   26197.83734752  .00000208  00000+0  79981-4 0  9995
2 69848  89.0065  60.7596 0030642 217.5713 142.3340 14.26455055  1611
QIANFAN-220             
1 69849U 26155B   26197.84916999  .00000191  00000+0  81324-4 0  9997
2 69849  89.0064  60.7611 0030102 217.9594 141.9475 14.21023256  1614
QIANFAN-221             
1 69850U 26155C   26197.83659450  .00000230  00000+0  88788-4 0  9999
2 69850  89.0065  60.7593 0030447 218.0195 141.8850 14.26647284  1611
QIANFAN-222             
1 69851U 26155D   26197.84692514  .00000193  00000+0  80244-4 0  9996
2 69851  89.0065  60.7610 0029450 218.0732 141.8379 14.22184993  1616
QIANFAN-223             
1 69852U 26155E   26197.84466138 -.00000039  00000+0 -23955-4 0  9995
2 69852  89.0067  60.7609 0029214 217.3723 142.5437 14.22139549  1617
QIANFAN-224             
1 69853U 26155F   26197.84267713  .00000221  00000+0  90534-4 0  9992
2 69853  89.0059  60.7596 0030084 217.5522 142.3569 14.23568419  1617
QIANFAN-225             
1 69854U 26155G   26197.69861604 -.01961311  00000+0 -10095+1 0  9994
2 69854  89.0062  60.7758 0034349 221.3978 138.4608 14.18931401  1594
QIANFAN-226             
1 69855U 26155H   26197.62744794 -.01944427  00000+0 -99972+0 0  9997
2 69855  89.0060  60.7837 0034459 214.4726 145.4229 14.18952328  1584
QIANFAN-227             
1 69856U 26155J   26197.48551175  .00000252  00000+0  97977-4 0  9995
2 69856  89.0065  60.7993 0030527 219.0357 140.8634 14.26683725  1564
QIANFAN-228             
1 69857U 26155K   26197.83617505  .00000209  00000+0  80058-4 0  9999
2 69857  89.0065  60.7594 0030552 217.8740 142.0305 14.26684405  1613
QIANFAN-229             
1 69858U 26155L   26197.62571007  .00000029  00000+0  57739-5 0  9994
2 69858  89.0065  60.7833 0030565 218.3433 141.5589 14.26689120  1582
QIANFAN-230             
1 69859U 26155M   26197.84841711  .00000123  00000+0  49236-4 0  9998
2 69859  89.0063  60.7609 0029194 218.2799 141.6320 14.21842064  1613
QIANFAN-231             
1 69860U 26155N   26197.83918813  .00000233  00000+0  91164-4 0  9996
2 69860  89.0066  60.7600 0030653 216.9759 142.9323 14.26096358  1611
QIANFAN-232             
1 69861U 26155P   26197.83602537  .00000218  00000+0  83581-4 0  9997
2 69861  89.0064  60.7592 0030461 218.2576 141.6457 14.26736095  1612
QIANFAN-233             
1 69862U 26155Q   26197.55385221 -.01823257  00000+0 -88051+0 0  9996
2 69862  89.0061  60.7911 0028360 218.2789 141.6390 14.22132435  1571
QIANFAN-234             
1 69863U 26155R   26197.83586285  .00000200  00000+0  76332-4 0  9997
2 69863  89.0066  60.7594 0030379 218.1170 141.7875 14.26758556  1616
QIANFAN-235             
1 69864U 26155S   26197.83581659  .00000223  00000+0  85803-4 0  9996
2 69864  89.0065  60.7593 0030342 218.1030 141.8019 14.26764559  1611
QIANFAN-236             
1 69865U 26155T   26197.83577671  .00000229  00000+0  88166-4 0  9997
2 69865  89.0065  60.7593 0030307 218.1673 141.7375 14.26769675  1614
QIANFAN-237             
1 69866U 26155U   26197.83571024  .00000217  00000+0  83083-4 0  9994
2 69866  89.0065  60.7593 0030280 218.1937 141.7112 14.26777919  1606
QIANFAN-238             
1 69867U 26155V   26197.83565235  .00000224  00000+0  86195-4 0  9997
2 69867  89.0065  60.7593 0030262 218.2334 141.6714 14.26785358  1613
CZ-8A R/B               
1 69868U 26155W   26197.80753963  .00000078  00000+0  14773-4 0  9992
2 69868  88.9657  60.7014 0106267  97.4856 263.8438 14.48270044  1628
