OBJECT_NAME,OBJECT_ID,EPOCH,MEAN_MOTION,ECCENTRICITY,INCLINATION,RA_OF_ASC_NODE,ARG_OF_PERICENTER,MEAN_ANOMALY,EPHEMERIS_TYPE,CLASSIFICATION_TYPE,NORAD_CAT_ID,ELEMENT_SET_NO,REV_AT_EPOCH,BSTAR,MEAN_MOTION_DOT,MEAN_MOTION_DDOT
STARLINK-37589,2026-154W,2026-07-16T20:00:01.999008,15.80897313,.0001286,53.1584,284.5667,97.1132,318.5260,0,U,69839,999,290,-.25004E-3,-.49822E-3,0
STARLINK-37487,2026-154X,2026-07-16T20:00:01.999008,15.89007887,.0000689,53.1569,284.1516,66.3656,188.6906,0,U,69840,999,290,-.60008E-2,-.1546327E-1,0
STARLINK-37433,2026-154Y,2026-07-16T20:00:01.999008,15.88968215,.0001133,53.1570,284.1355,68.9686,193.7819,0,U,69841,999,303,-.89329E-2,-.2226105E-1,0
STARLINK-37588,2026-154Z,2026-07-16T20:00:01.999008,15.88990753,.0000707,53.1567,284.1261,57.7353,209.4914,0,U,69842,999,293,-.23219E-2,-.632217E-2,0
STARLINK-37579,2026-154AA,2026-07-16T20:00:01.999008,15.88542370,.0000744,53.1567,284.1097,60.6552,214.2462,0,U,69843,999,293,-.67149E-2,-.1671295E-1,0
STARLINK-37584,2026-154AB,2026-07-16T20:00:01.999008,15.88182724,.0000672,53.1570,284.0986,67.3640,212.8166,0,U,69844,999,293,-.32425E-2,-.828928E-2,0
STARLINK-37606,2026-154AC,2026-07-16T20:00:01.999008,15.88343213,.0000766,53.1566,284.0858,68.0091,218.2336,0,U,69845,999,293,-.75115E-2,-.1824657E-1,0
STARLINK-37603,2026-154AD,2026-07-16T20:00:01.999008,15.88040053,.0000792,53.1567,284.0712,67.2556,225.8206,0,U,69846,999,293,-.7817E-2,-.1863085E-1,0
STARLINK-37595,2026-154AE,2026-07-16T20:00:01.999008,15.87934146,.0000722,53.1565,284.0600,59.6715,238.5947,0,U,69847,999,293,-.79249E-2,-.1876238E-1,0
QIANFAN-219,2026-155A,2026-07-16T20:05:46.825728,14.26455055,.0030642,89.0065,60.7596,217.5713,142.3340,0,U,69848,999,161,.79981E-4,.208E-5,0
QIANFAN-220,2026-155B,2026-07-16T20:22:48.287136,14.21023256,.0030102,89.0064,60.7611,217.9594,141.9475,0,U,69849,999,161,.81324E-4,.191E-5,0
QIANFAN-221,2026-155C,2026-07-16T20:04:41.764800,14.26647284,.0030447,89.0065,60.7593,218.0195,141.8850,0,U,69850,999,161,.88788E-4,.23E-5,0
QIANFAN-222,2026-155D,2026-07-16T20:19:34.332096,14.22184993,.002945,89.0065,60.7610,218.0732,141.8379,0,U,69851,999,161,.80244E-4,.193E-5,0
QIANFAN-223,2026-155E,2026-07-16T20:16:18.743232,14.22139549,.0029214,89.0067,60.7609,217.3723,142.5437,0,U,69852,999,161,-.23955E-4,-.39E-6,0
QIANFAN-224,2026-155F,2026-07-16T20:13:27.304032,14.23568419,.0030084,89.0059,60.7596,217.5522,142.3569,0,U,69853,999,161,.90534E-4,.221E-5,0
QIANFAN-225,2026-155G,2026-07-16T16:46:00.425856,14.18931401,.0034349,89.0062,60.7758,221.3978,138.4608,0,U,69854,999,159,-.10095E+1,-.1961311E-1,0
QIANFAN-226,2026-155H,2026-07-16T15:03:31.502016,14.18952328,.0034459,89.0060,60.7837,214.4726,145.4229,0,U,69855,999,158,-.99972E+0,-.1944427E-1,0
QIANFAN-227,2026-155J,2026-07-16T11:39:08.215200,14.26683725,.0030527,89.0065,60.7993,219.0357,140.8634,0,U,69856,999,156,.97977E-4,.252E-5,0
QIANFAN-228,2026-155K,2026-07-16T20:04:05.524320,14.26684405,.0030552,89.0065,60.7594,217.8740,142.0305,0,U,69857,999,161,.80058E-4,.209E-5,0
QIANFAN-229,2026-155L,2026-07-16T15:01:01.350048,14.26689120,.0030565,89.0065,60.7833,218.3433,141.5589,0,U,69858,999,158,.57739E-5,.29E-6,0
QIANFAN-230,2026-155M,2026-07-16T20:21:43.238304,14.21842064,.0029194,89.0063,60.7609,218.2799,141.6320,0,U,69859,999,161,.49236E-4,.123E-5,0
QIANFAN-231,2026-155N,2026-07-16T20:08:25.854432,14.26096358,.0030653,89.0066,60.7600,216.9759,142.9323,0,U,69860,999,161,.91164E-4,.233E-5,0
QIANFAN-232,2026-155P,2026-07-16T20:03:52.591968,14.26736095,.0030461,89.0064,60.7592,218.2576,141.6457,0,U,69861,999,161,.83581E-4,.218E-5,0
QIANFAN-233,2026-155Q,2026-07-16T13:17:32.830944,14.22132435,.002836,89.0061,60.7911,218.2789,141.6390,0,U,69862,999,157,-.88051E+0,-.1823257E-1,0
QIANFAN-234,2026-155R,2026-07-16T20:03:38.550240,14.26758556,.0030379,89.0066,60.7594,218.1170,141.7875,0,U,69863,999,161,.76332E-4,.2E-5,0
QIANFAN-235,2026-155S,2026-07-16T20:03:34.553376,14.26764559,.0030342,89.0065,60.7593,218.1030,141.8019,0,U,69864,999,161,.85803E-4,.223E-5,0
QIANFAN-236,2026-155T,2026-07-16T20:03:31.107744,14.26769675,.0030307,89.0065,60.7593,218.1673,141.7375,0,U,69865,999,161,.88166E-4,.229E-5,0
QIANFAN-237,2026-155U,2026-07-16T20:03:25.364736,14.26777919,.003028,89.0065,60.7593,218.1937,141.7112,0,U,69866,999,160,.83083E-4,.217E-5,0
QIANFAN-238,2026-155V,2026-07-16T20:03:20.363040,14.26785358,.0030262,89.0065,60.7593,218.2334,141.6714,0,U,69867,999,161,.86195E-4,.224E-5,0
CZ-8A R/B,2026-155W,2026-07-16T19:22:51.424032,14.48270044,.0106267,88.9657,60.7014,97.4856,263.8438,0,U,69868,999,162,.14773E-4,.78E-6,0
